[{"OBJECT_NAME":"SITRO-AIS 9 (SHCHUKIN)","OBJECT_ID":"2023-091AM","EPOCH":"2026-03-09T22:43:02.581824","MEAN_MOTION":15.34387966,"ECCENTRICITY":0.00083665,"INCLINATION":97.518,"RA_OF_ASC_NODE":137.1581,"ARG_OF_PERICENTER":74.1415,"MEAN_ANOMALY":286.0749,"EPHEMERIS_TYPE":0,"CLASSIFICATION_TYPE":"U","NORAD_CAT_ID":57201,"ELEMENT_SET_NO":999,"REV_AT_EPOCH":14951,"BSTAR":0.00072073044,"MEAN_MOTION_DOT":0.00023992,"MEAN_MOTION_DDOT":0},{"OBJECT_NAME":"STARLINK-30776","OBJECT_ID":"2023-162U","EPOCH":"2026-03-09T22:00:01.999584","MEAN_MOTION":15.2481564,"ECCENTRICITY":0.00014304,"INCLINATION":43.0008,"RA_OF_ASC_NODE":131.3181,"ARG_OF_PERICENTER":256.5401,"MEAN_ANOMALY":336.6047,"EPHEMERIS_TYPE":0,"CLASSIFICATION_TYPE":"U","NORAD_CAT_ID":58136,"ELEMENT_SET_NO":999,"REV_AT_EPOCH":568,"BSTAR":0.043191873,"MEAN_MOTION_DOT":0.01190361,"MEAN_MOTION_DDOT":0}]
